[
  {
    "OBJECT_NAME": "STARLINK-32945",
    "OBJECT_ID": "25039Q",
    "EPOCH": "2025-11-11T07:22:30.842688",
    "MEAN_MOTION": 15.27619985,
    "ECCENTRICITY": 7.13e-05,
    "INCLINATION": 43.001,
    "RA_OF_ASC_NODE": 321.1813,
    "ARG_OF_PERICENTER": 276.023,
    "MEAN_ANOMALY": 84.0541,
    "EPHEMERIS_TYPE": 0,
    "CLASSIFICATION_TYPE": "U",
    "NORAD_CAT_ID": 63118,
    "ELEMENT_SET_NO": 999,
    "REV_AT_EPOCH": 3996,
    "BSTAR": 0.001457,
    "MEAN_MOTION_DOT": 0.00040098,
    "MEAN_MOTION_DDOT": 0.0,
    "TLE_LINE1": "1 63118U 25039Q   25315.30730142  .00040098  00000+0  14570-2 0  9993",
    "TLE_LINE2": "2 63118  43.0010 321.1813 0000713 276.0230  84.0541 15.27619985 39961",
    "COMMENT": "Grouped by shell and plane from TLE"
  },
  {
    "OBJECT_NAME": "STARLINK-32942",
    "OBJECT_ID": "25039S",
    "EPOCH": "2025-11-11T07:31:45.749280",
    "MEAN_MOTION": 15.27605911,
    "ECCENTRICITY": 8.33e-05,
    "INCLINATION": 43.0019,
    "RA_OF_ASC_NODE": 321.226,
    "ARG_OF_PERICENTER": 281.0317,
    "MEAN_ANOMALY": 79.0441,
    "EPHEMERIS_TYPE": 0,
    "CLASSIFICATION_TYPE": "U",
    "NORAD_CAT_ID": 63120,
    "ELEMENT_SET_NO": 999,
    "REV_AT_EPOCH": 3996,
    "BSTAR": 0.0017116000000000002,
    "MEAN_MOTION_DOT": 0.00047175,
    "MEAN_MOTION_DDOT": 0.0,
    "TLE_LINE1": "1 63120U 25039S   25315.31372395  .00047175  00000+0  17116-2 0  9991",
    "TLE_LINE2": "2 63120  43.0019 321.2260 0000833 281.0317  79.0441 15.27605911 39962",
    "COMMENT": "Grouped by shell and plane from TLE"
  },
  {
    "OBJECT_NAME": "STARLINK-32947",
    "OBJECT_ID": "25039T",
    "EPOCH": "2025-11-11T00:28:52.739040",
    "MEAN_MOTION": 15.27615686,
    "ECCENTRICITY": 0.0001505,
    "INCLINATION": 43.0027,
    "RA_OF_ASC_NODE": 322.4643,
    "ARG_OF_PERICENTER": 258.1976,
    "MEAN_ANOMALY": 101.8707,
    "EPHEMERIS_TYPE": 0,
    "CLASSIFICATION_TYPE": "U",
    "NORAD_CAT_ID": 63121,
    "ELEMENT_SET_NO": 999,
    "REV_AT_EPOCH": 3992,
    "BSTAR": 0.0013213,
    "MEAN_MOTION_DOT": 0.00036317,
    "MEAN_MOTION_DDOT": 0.0,
    "TLE_LINE1": "1 63121U 25039T   25315.02005485  .00036317  00000+0  13213-2 0  9993",
    "TLE_LINE2": "2 63121  43.0027 322.4643 0001505 258.1976 101.8707 15.27615686 39928",
    "COMMENT": "Grouped by shell and plane from TLE"
  },
  {
    "OBJECT_NAME": "STARLINK-32961",
    "OBJECT_ID": "25039U",
    "EPOCH": "2025-11-11T01:31:47.976672",
    "MEAN_MOTION": 15.27594549,
    "ECCENTRICITY": 0.0001371,
    "INCLINATION": 43.0019,
    "RA_OF_ASC_NODE": 322.7913,
    "ARG_OF_PERICENTER": 259.2598,
    "MEAN_ANOMALY": 100.8099,
    "EPHEMERIS_TYPE": 0,
    "CLASSIFICATION_TYPE": "U",
    "NORAD_CAT_ID": 63122,
    "ELEMENT_SET_NO": 999,
    "REV_AT_EPOCH": 3992,
    "BSTAR": 0.0015451000000000002,
    "MEAN_MOTION_DOT": 0.00042521,
    "MEAN_MOTION_DDOT": 0.0,
    "TLE_LINE1": "1 63122U 25039U   25315.06374973  .00042521  00000+0  15451-2 0  9999",
    "TLE_LINE2": "2 63122  43.0019 322.7913 0001371 259.2598 100.8099 15.27594549 39923",
    "COMMENT": "Grouped by shell and plane from TLE"
  },
  {
    "OBJECT_NAME": "STARLINK-32948",
    "OBJECT_ID": "25039V",
    "EPOCH": "2025-11-11T01:20:41.934624",
    "MEAN_MOTION": 15.27595028,
    "ECCENTRICITY": 6.82e-05,
    "INCLINATION": 42.9934,
    "RA_OF_ASC_NODE": 322.7301,
    "ARG_OF_PERICENTER": 342.1064,
    "MEAN_ANOMALY": 17.9763,
    "EPHEMERIS_TYPE": 0,
    "CLASSIFICATION_TYPE": "U",
    "NORAD_CAT_ID": 63123,
    "ELEMENT_SET_NO": 999,
    "REV_AT_EPOCH": 3992,
    "BSTAR": 0.00094407,
    "MEAN_MOTION_DOT": 0.0002582,
    "MEAN_MOTION_DDOT": 0.0,
    "TLE_LINE1": "1 63123U 25039V   25315.05604091  .00025820  00000+0  94407-3 0  9998",
    "TLE_LINE2": "2 63123  42.9934 322.7301 0000682 342.1064  17.9763 15.27595028 39922",
    "COMMENT": "Grouped by shell and plane from TLE"
  },
  {
    "OBJECT_NAME": "STARLINK-32957",
    "OBJECT_ID": "25039W",
    "EPOCH": "2025-11-11T01:41:03.045696",
    "MEAN_MOTION": 15.27600996,
    "ECCENTRICITY": 8.49e-05,
    "INCLINATION": 43.0026,
    "RA_OF_ASC_NODE": 322.8407,
    "ARG_OF_PERICENTER": 259.1647,
    "MEAN_ANOMALY": 100.9109,
    "EPHEMERIS_TYPE": 0,
    "CLASSIFICATION_TYPE": "U",
    "NORAD_CAT_ID": 63124,
    "ELEMENT_SET_NO": 999,
    "REV_AT_EPOCH": 3992,
    "BSTAR": 0.0012909000000000002,
    "MEAN_MOTION_DOT": 0.00035455,
    "MEAN_MOTION_DDOT": 0.0,
    "TLE_LINE1": "1 63124U 25039W   25315.07017414  .00035455  00000+0  12909-2 0  9999",
    "TLE_LINE2": "2 63124  43.0026 322.8407 0000849 259.1647 100.9109 15.27600996 39922",
    "COMMENT": "Grouped by shell and plane from TLE"
  },
  {
    "OBJECT_NAME": "STARLINK-32949",
    "OBJECT_ID": "25043P",
    "EPOCH": "2025-11-11T01:01:36.951456",
    "MEAN_MOTION": 15.27601341,
    "ECCENTRICITY": 8.78e-05,
    "INCLINATION": 42.9997,
    "RA_OF_ASC_NODE": 326.5635,
    "ARG_OF_PERICENTER": 324.1176,
    "MEAN_ANOMALY": 35.9617,
    "EPHEMERIS_TYPE": 0,
    "CLASSIFICATION_TYPE": "U",
    "NORAD_CAT_ID": 63145,
    "ELEMENT_SET_NO": 999,
    "REV_AT_EPOCH": 3978,
    "BSTAR": 0.0011365000000000001,
    "MEAN_MOTION_DOT": 0.00031166,
    "MEAN_MOTION_DDOT": 0.0,
    "TLE_LINE1": "1 63145U 25043P   25315.04278879  .00031166  00000+0  11365-2 0  9998",
    "TLE_LINE2": "2 63145  42.9997 326.5635 0000878 324.1176  35.9617 15.27601341 39786",
    "COMMENT": "Grouped by shell and plane from TLE"
  },
  {
    "OBJECT_NAME": "STARLINK-32937",
    "OBJECT_ID": "25043S",
    "EPOCH": "2025-11-11T01:58:45.039072",
    "MEAN_MOTION": 15.27613462,
    "ECCENTRICITY": 9.61e-05,
    "INCLINATION": 43.0016,
    "RA_OF_ASC_NODE": 325.9987,
    "ARG_OF_PERICENTER": 252.5429,
    "MEAN_ANOMALY": 107.5318,
    "EPHEMERIS_TYPE": 0,
    "CLASSIFICATION_TYPE": "U",
    "NORAD_CAT_ID": 63148,
    "ELEMENT_SET_NO": 999,
    "REV_AT_EPOCH": 3922,
    "BSTAR": 0.0015938,
    "MEAN_MOTION_DOT": 0.00043901,
    "MEAN_MOTION_DDOT": 0.0,
    "TLE_LINE1": "1 63148U 25043S   25315.08246573  .00043901  00000+0  15938-2 0  9991",
    "TLE_LINE2": "2 63148  43.0016 325.9987 0000961 252.5429 107.5318 15.27613462 39224",
    "COMMENT": "Grouped by shell and plane from TLE"
  },
  {
    "OBJECT_NAME": "STARLINK-32939",
    "OBJECT_ID": "25043T",
    "EPOCH": "2025-11-11T01:43:57.367200",
    "MEAN_MOTION": 15.27594821,
    "ECCENTRICITY": 0.0001329,
    "INCLINATION": 43.0019,
    "RA_OF_ASC_NODE": 325.9227,
    "ARG_OF_PERICENTER": 263.8382,
    "MEAN_ANOMALY": 96.2318,
    "EPHEMERIS_TYPE": 0,
    "CLASSIFICATION_TYPE": "U",
    "NORAD_CAT_ID": 63149,
    "ELEMENT_SET_NO": 999,
    "REV_AT_EPOCH": 3922,
    "BSTAR": 0.0016412,
    "MEAN_MOTION_DOT": 0.00045197,
    "MEAN_MOTION_DDOT": 0.0,
    "TLE_LINE1": "1 63149U 25043T   25315.07219175  .00045197  00000+0  16412-2 0  9996",
    "TLE_LINE2": "2 63149  43.0019 325.9227 0001329 263.8382  96.2318 15.27594821 39228",
    "COMMENT": "Grouped by shell and plane from TLE"
  },
  {
    "OBJECT_NAME": "STARLINK-32919",
    "OBJECT_ID": "25043U",
    "EPOCH": "2025-11-11T02:04:18.725376",
    "MEAN_MOTION": 15.27600791,
    "ECCENTRICITY": 9.6e-05,
    "INCLINATION": 43.003,
    "RA_OF_ASC_NODE": 326.0256,
    "ARG_OF_PERICENTER": 265.8986,
    "MEAN_ANOMALY": 94.1756,
    "EPHEMERIS_TYPE": 0,
    "CLASSIFICATION_TYPE": "U",
    "NORAD_CAT_ID": 63150,
    "ELEMENT_SET_NO": 999,
    "REV_AT_EPOCH": 3922,
    "BSTAR": 0.0016841,
    "MEAN_MOTION_DOT": 0.00046403,
    "MEAN_MOTION_DDOT": 0.0,
    "TLE_LINE1": "1 63150U 25043U   25315.08632784  .00046403  00000+0  16841-2 0  9991",
    "TLE_LINE2": "2 63150  43.0030 326.0256 0000960 265.8986  94.1756 15.27600791 39226",
    "COMMENT": "Grouped by shell and plane from TLE"
  },
  {
    "OBJECT_NAME": "STARLINK-32876",
    "OBJECT_ID": "25043V",
    "EPOCH": "2025-11-11T07:32:48.601824",
    "MEAN_MOTION": 15.27583177,
    "ECCENTRICITY": 0.0001492,
    "INCLINATION": 42.9998,
    "RA_OF_ASC_NODE": 324.2959,
    "ARG_OF_PERICENTER": 246.4093,
    "MEAN_ANOMALY": 113.6602,
    "EPHEMERIS_TYPE": 0,
    "CLASSIFICATION_TYPE": "U",
    "NORAD_CAT_ID": 63151,
    "ELEMENT_SET_NO": 999,
    "REV_AT_EPOCH": 3926,
    "BSTAR": 0.0012736,
    "MEAN_MOTION_DOT": 0.00034955,
    "MEAN_MOTION_DDOT": 0.0,
    "TLE_LINE1": "1 63151U 25043V   25315.31445141  .00034955  00000+0  12736-2 0  9995",
    "TLE_LINE2": "2 63151  42.9998 324.2959 0001492 246.4093 113.6602 15.27583177 39262",
    "COMMENT": "Grouped by shell and plane from TLE"
  },
  {
    "OBJECT_NAME": "STARLINK-33671",
    "OBJECT_ID": "25057P",
    "EPOCH": "2025-11-11T02:24:03.506976",
    "MEAN_MOTION": 15.27600896,
    "ECCENTRICITY": 0.0001138,
    "INCLINATION": 43.0019,
    "RA_OF_ASC_NODE": 329.945,
    "ARG_OF_PERICENTER": 258.8134,
    "MEAN_ANOMALY": 101.259,
    "EPHEMERIS_TYPE": 0,
    "CLASSIFICATION_TYPE": "U",
    "NORAD_CAT_ID": 63320,
    "ELEMENT_SET_NO": 999,
    "REV_AT_EPOCH": 3776,
    "BSTAR": 0.0015532000000000002,
    "MEAN_MOTION_DOT": 0.00042755,
    "MEAN_MOTION_DDOT": 0.0,
    "TLE_LINE1": "1 63320U 25057P   25315.10004059  .00042755  00000+0  15532-2 0  9998",
    "TLE_LINE2": "2 63320  43.0019 329.9450 0001138 258.8134 101.2590 15.27600896 37764",
    "COMMENT": "Grouped by shell and plane from TLE"
  },
  {
    "OBJECT_NAME": "STARLINK-33845",
    "OBJECT_ID": "25071C",
    "EPOCH": "2025-11-11T06:49:10.153056",
    "MEAN_MOTION": 15.30216999,
    "ECCENTRICITY": 0.0001412,
    "INCLINATION": 53.1605,
    "RA_OF_ASC_NODE": 329.7558,
    "ARG_OF_PERICENTER": 98.9011,
    "MEAN_ANOMALY": 261.215,
    "EPHEMERIS_TYPE": 0,
    "CLASSIFICATION_TYPE": "U",
    "NORAD_CAT_ID": 63495,
    "ELEMENT_SET_NO": 999,
    "REV_AT_EPOCH": 3462,
    "BSTAR": 0.00084536,
    "MEAN_MOTION_DOT": 0.00024775,
    "MEAN_MOTION_DDOT": 0.0,
    "TLE_LINE1": "1 63495U 25071C   25315.28414529  .00024775  00000+0  84536-3 0  9996",
    "TLE_LINE2": "2 63495  53.1605 329.7558 0001412  98.9011 261.2150 15.30216999 34621",
    "COMMENT": "Grouped by shell and plane from TLE"
  }
]